OPTICUBE 04             
1 41851U 16067D   26068.51005515  .00003771  00000+0  24102-3 0  9992
2 41851  98.0811 275.5525 0017089  94.6311 265.6869 15.09188144510131
STARLINK-1566           
1 46079U 20055BE  26068.79803133  .00005672  00000+0  39931-3 0  9991
2 46079  53.0536  96.1320 0001467  87.7900 272.3257 15.06403842309328
